start=new Date('2022-07-30T00:00:00.000Z').valueOf();
sats=[{"ELEMENT_SET_NO":"999","DECAY_DATE":null,"EPOCH":"2022-07-29T16:10:38.760672","RCS_SIZE":"LARGE","OBJECT_NAME":"STARLINK-1692","CENTER_NAME":"EARTH","EPHEMERIS_TYPE":"0","RA_OF_ASC_NODE":"337.9128","REF_FRAME":"TEME","TLE_LINE2":"2 46542  53.0564 337.9128 0001498  75.0876 285.0278 15.06408499100698","GP_ID":"209131440","LAUNCH_DATE":"2020-10-06","MEAN_MOTION_DDOT":"0.0000000000000","MEAN_MOTION":"15.06408499","OBJECT_ID":"2020-070L","ARG_OF_PERICENTER":"75.0876","APOAPSIS":"548.225","PERIOD":"95.592","TLE_LINE1":"1 46542U 20070L   22210.67405973  .00000991  00000-0  85399-4 0  9995","FILE":"3524848","PERIAPSIS":"546.150","ECCENTRICITY":"0.00014980","COUNTRY_CODE":"US","CLASSIFICATION_TYPE":"U","INCLINATION":"53.0564","OBJECT_TYPE":"PAYLOAD","NORAD_CAT_ID":"46542","SEMIMAJOR_AXIS":"6925.323","MEAN_MOTION_DOT":"0.00000991","BSTAR":"0.00008539900000","TIME_SYSTEM":"UTC","MEAN_ANOMALY":"285.0278","MEAN_ELEMENT_THEORY":"SGP4","SITE":"AFETR","REV_AT_EPOCH":"10069"},{"ARG_OF_PERICENTER":"77.6564","APOAPSIS":"548.198","TLE_LINE1":"1 46543U 20070M   22210.72566673 -.00000847  00000-0 -37952-4 0  9991","PERIOD":"95.592","OBJECT_ID":"2020-070M","MEAN_MOTION_DDOT":"0.0000000000000","MEAN_MOTION":"15.06402913","GP_ID":"209130206","LAUNCH_DATE":"2020-10-06","MEAN_ELEMENT_THEORY":"SGP4","SITE":"AFETR","REV_AT_EPOCH":"10070","MEAN_MOTION_DOT":"-0.00000847","BSTAR":"-0.00003795200000","TIME_SYSTEM":"UTC","MEAN_ANOMALY":"282.4586","CLASSIFICATION_TYPE":"U","INCLINATION":"53.0568","OBJECT_TYPE":"PAYLOAD","NORAD_CAT_ID":"46543","SEMIMAJOR_AXIS":"6925.340","FILE":"3524848","PERIAPSIS":"546.212","ECCENTRICITY":"0.00014340","COUNTRY_CODE":"US","OBJECT_NAME":"STARLINK-1693","EPOCH":"2022-07-29T17:24:57.605472","RCS_SIZE":"LARGE","DECAY_DATE":null,"ELEMENT_SET_NO":"999","TLE_LINE2":"2 46543  53.0568 337.6754 0001434  77.6564 282.4586 15.06402913100707","REF_FRAME":"TEME","EPHEMERIS_TYPE":"0","RA_OF_ASC_NODE":"337.6754","CENTER_NAME":"EARTH"},{"ELEMENT_SET_NO":"999","DECAY_DATE":null,"EPOCH":"2022-07-29T17:18:59.664096","RCS_SIZE":"LARGE","OBJECT_NAME":"STARLINK-1694","CENTER_NAME":"EARTH","EPHEMERIS_TYPE":"0","RA_OF_ASC_NODE":"322.7128","REF_FRAME":"TEME","TLE_LINE2":"2 46544  53.0549 322.7128 0001287  75.4196 284.6935 15.06399409100910","GP_ID":"209130957","LAUNCH_DATE":"2020-10-06","MEAN_MOTION_DDOT":"0.0000000000000","MEAN_MOTION":"15.06399409","OBJECT_ID":"2020-070N","ARG_OF_PERICENTER":"75.4196","APOAPSIS":"548.107","TLE_LINE1":"1 46544U 20070N   22210.72152389 -.00000117  00000-0  11058-4 0  9995","PERIOD":"95.592","ECCENTRICITY":"0.00012870","FILE":"3524848","PERIAPSIS":"546.324","COUNTRY_CODE":"US","CLASSIFICATION_TYPE":"U","INCLINATION":"53.0549","OBJECT_TYPE":"PAYLOAD","NORAD_CAT_ID":"46544","SEMIMAJOR_AXIS":"6925.350","BSTAR":"0.00001105800000","MEAN_MOTION_DOT":"-0.00000117","TIME_SYSTEM":"UTC","MEAN_ANOMALY":"284.6935","MEAN_ELEMENT_THEORY":"SGP4","SITE":"AFETR","REV_AT_EPOCH":"10091"},{"MEAN_MOTION":"15.06402292","MEAN_MOTION_DDOT":"0.0000000000000","GP_ID":"209131205","LAUNCH_DATE":"2020-10-06","PERIOD":"95.592","TLE_LINE1":"1 46545U 20070P   22210.62983223  .00001021  00000-0  87414-4 0  9997","APOAPSIS":"548.175","ARG_OF_PERICENTER":"80.4528","OBJECT_ID":"2020-070P","SEMIMAJOR_AXIS":"6925.342","OBJECT_TYPE":"PAYLOAD","NORAD_CAT_ID":"46545","INCLINATION":"53.0545","CLASSIFICATION_TYPE":"U","COUNTRY_CODE":"US","FILE":"3524848","ECCENTRICITY":"0.00013980","PERIAPSIS":"546.238","REV_AT_EPOCH":"10068","SITE":"AFETR","MEAN_ELEMENT_THEORY":"SGP4","MEAN_ANOMALY":"279.6619","TIME_SYSTEM":"UTC","MEAN_MOTION_DOT":"0.00001021","BSTAR":"0.00008741400000","DECAY_DATE":null,"ELEMENT_SET_NO":"999","OBJECT_NAME":"STARLINK-1696","RCS_SIZE":"LARGE","EPOCH":"2022-07-29T15:06:57.504672","RA_OF_ASC_NODE":"338.1148","EPHEMERIS_TYPE":"0","CENTER_NAME":"EARTH","TLE_LINE2":"2 46545  53.0545 338.1148 0001398  80.4528 279.6619 15.06402292100680","REF_FRAME":"TEME"},{"TLE_LINE1":"1 46546U 20070Q   22210.74777933  .00000476  00000-0  50856-4 0  9993","PERIOD":"95.592","ARG_OF_PERICENTER":"63.6155","APOAPSIS":"548.130","OBJECT_ID":"2020-070Q","MEAN_MOTION":"15.06402461","MEAN_MOTION_DDOT":"0.0000000000000","GP_ID":"209130941","LAUNCH_DATE":"2020-10-06","REV_AT_EPOCH":"10070","MEAN_ELEMENT_THEORY":"SGP4","SITE":"AFETR","TIME_SYSTEM":"UTC","MEAN_ANOMALY":"296.4971","MEAN_MOTION_DOT":"0.00000476","BSTAR":"0.00005085600000","OBJECT_TYPE":"PAYLOAD","SEMIMAJOR_AXIS":"6925.341","NORAD_CAT_ID":"46546","CLASSIFICATION_TYPE":"U","INCLINATION":"53.0568","COUNTRY_CODE":"US","FILE":"3524848","PERIAPSIS":"546.282","ECCENTRICITY":"0.00013340","OBJECT_NAME":"STARLINK-1697","RCS_SIZE":"LARGE","EPOCH":"2022-07-29T17:56:48.134112","DECAY_DATE":null,"ELEMENT_SET_NO":"999","TLE_LINE2":"2 46546  53.0568 337.5781 0001334  63.6155 296.4971 15.06402461100700","REF_FRAME":"TEME","RA_OF_ASC_NODE":"337.5781","EPHEMERIS_TYPE":"0","CENTER_NAME":"EARTH"},{"OBJECT_NAME":"STARLINK-1698","RCS_SIZE":"LARGE","EPOCH":"2022-07-29T18:37:54.763392","DECAY_DATE":null,"ELEMENT_SET_NO":"999","TLE_LINE2":"2 46547  53.0562 337.4431 0001353  71.5217 288.5919 15.06400763100712","REF_FRAME":"TEME","RA_OF_ASC_NODE":"337.4431","EPHEMERIS_TYPE":"0","CENTER_NAME":"EARTH","PERIOD":"95.592","TLE_LINE1":"1 46547U 20070R   22210.77632828 -.00000962  00000-0 -45696-4 0  9998","APOAPSIS":"548.148","ARG_OF_PERICENTER":"71.5217","OBJECT_ID":"2020-070R","MEAN_MOTION":"15.06400763","MEAN_MOTION_DDOT":"0.0000000000000","GP_ID":"209129708","LAUNCH_DATE":"2020-10-06","REV_AT_EPOCH":"10071","MEAN_ELEMENT_THEORY":"SGP4","SITE":"AFETR","TIME_SYSTEM":"UTC","MEAN_ANOMALY":"288.5919","BSTAR":"-0.00004569600000","MEAN_MOTION_DOT":"-0.00000962","NORAD_CAT_ID":"46547","OBJECT_TYPE":"PAYLOAD","SEMIMAJOR_AXIS":"6925.346","CLASSIFICATION_TYPE":"U","INCLINATION":"53.0562","COUNTRY_CODE":"US","ECCENTRICITY":"0.00013530","FILE":"3524848","PERIAPSIS":"546.274"},{"DECAY_DATE":null,"ELEMENT_SET_NO":"999","OBJECT_NAME":"STARLINK-1699","RCS_SIZE":"LARGE","EPOCH":"2022-07-29T18:55:12.012672","RA_OF_ASC_NODE":"337.4010","EPHEMERIS_TYPE":"0","CENTER_NAME":"EARTH","TLE_LINE2":"2 46548  53.0565 337.4010 0001369  81.7618 278.3527 15.06393583100717","REF_FRAME":"TEME","MEAN_MOTION":"15.06393583","MEAN_MOTION_DDOT":"0.0000000000000","GP_ID":"209130458","LAUNCH_DATE":"2020-10-06","TLE_LINE1":"1 46548U 20070S   22210.78833348 -.00001018  00000-0 -49466-4 0  9992","PERIOD":"95.593","APOAPSIS":"548.181","ARG_OF_PERICENTER":"81.7618","OBJECT_ID":"2020-070S","OBJECT_TYPE":"PAYLOAD","SEMIMAJOR_AXIS":"6925.368","NORAD_CAT_ID":"46548","CLASSIFICATION_TYPE":"U","INCLINATION":"53.0565","COUNTRY_CODE":"US","FILE":"3524848","PERIAPSIS":"546.285","ECCENTRICITY":"0.00013690","REV_AT_EPOCH":"10071","MEAN_ELEMENT_THEORY":"SGP4","SITE":"AFETR","TIME_SYSTEM":"UTC","MEAN_ANOMALY":"278.3527","BSTAR":"-0.00004946600000","MEAN_MOTION_DOT":"-0.00001018"},{"COUNTRY_CODE":"US","ECCENTRICITY":"0.00013370","FILE":"3524848","PERIAPSIS":"546.273","OBJECT_TYPE":"PAYLOAD","SEMIMAJOR_AXIS":"6925.334","NORAD_CAT_ID":"46549","INCLINATION":"53.0554","CLASSIFICATION_TYPE":"U","MEAN_ANOMALY":"277.5093","TIME_SYSTEM":"UTC","MEAN_MOTION_DOT":"0.00005155","BSTAR":"0.00036466000000","REV_AT_EPOCH":"10071","SITE":"AFETR","MEAN_ELEMENT_THEORY":"SGP4","GP_ID":"209130706","LAUNCH_DATE":"2020-10-06","MEAN_MOTION":"15.06404729","MEAN_MOTION_DDOT":"0.0000000000000","OBJECT_ID":"2020-070T","TLE_LINE1":"1 46549U 20070T   22210.81781513  .00005155  00000-0  36466-3 0  9992","PERIOD":"95.592","APOAPSIS":"548.125","ARG_OF_PERICENTER":"82.6048","CENTER_NAME":"EARTH","RA_OF_ASC_NODE":"337.2725","EPHEMERIS_TYPE":"0","REF_FRAME":"TEME","TLE_LINE2":"2 46549  53.0554 337.2725 0001337  82.6048 277.5093 15.06404729100713","ELEMENT_SET_NO":"999","DECAY_DATE":null,"RCS_SIZE":"LARGE","EPOCH":"2022-07-29T19:37:39.227232","OBJECT_NAME":"STARLINK-1700"},{"TLE_LINE2":"2 46550  53.0552 337.6400 0001272  72.9116 287.2013 15.06398094100709","REF_FRAME":"TEME","EPHEMERIS_TYPE":"0","RA_OF_ASC_NODE":"337.6400","CENTER_NAME":"EARTH","OBJECT_NAME":"STARLINK-1701","EPOCH":"2022-07-29T17:40:52.644288","RCS_SIZE":"LARGE","DECAY_DATE":null,"ELEMENT_SET_NO":"999","SITE":"AFETR","MEAN_ELEMENT_THEORY":"SGP4","REV_AT_EPOCH":"10070","BSTAR":"0.00001707400000","MEAN_MOTION_DOT":"-0.00000027","MEAN_ANOMALY":"287.2013","TIME_SYSTEM":"UTC","INCLINATION":"53.0552","CLASSIFICATION_TYPE":"U","SEMIMAJOR_AXIS":"6925.354","OBJECT_TYPE":"PAYLOAD","NORAD_CAT_ID":"46550","FILE":"3524848","ECCENTRICITY":"0.00012720","PERIAPSIS":"546.338","COUNTRY_CODE":"US","ARG_OF_PERICENTER":"72.9116","APOAPSIS":"548.100","PERIOD":"95.592","TLE_LINE1":"1 46550U 20070U   22210.73672042 -.00000027  00000-0  17074-4 0  9990","OBJECT_ID":"2020-070U","MEAN_MOTION_DDOT":"0.0000000000000","MEAN_MOTION":"15.06398094","LAUNCH_DATE":"2020-10-06","GP_ID":"209131441"},{"BSTAR":"-0.00004160900000","MEAN_MOTION_DOT":"-0.00000901","TIME_SYSTEM":"UTC","MEAN_ANOMALY":"282.5296","MEAN_ELEMENT_THEORY":"SGP4","SITE":"AFETR","REV_AT_EPOCH":"10091","FILE":"3524848","ECCENTRICITY":"0.00011650","PERIAPSIS":"546.421","COUNTRY_CODE":"US","CLASSIFICATION_TYPE":"U","INCLINATION":"53.0557","SEMIMAJOR_AXIS":"6925.363","OBJECT_TYPE":"PAYLOAD","NORAD_CAT_ID":"46552","OBJECT_ID":"2020-070W","ARG_OF_PERICENTER":"77.5824","APOAPSIS":"548.035","TLE_LINE1":"1 46552U 20070W   22210.69572633 -.00000901  00000-0 -41609-4 0  9995","PERIOD":"95.592","GP_ID":"209130207","LAUNCH_DATE":"2020-10-06","MEAN_MOTION_DDOT":"0.0000000000000","MEAN_MOTION":"15.06395312","REF_FRAME":"TEME","TLE_LINE2":"2 46552  53.0557 322.8016 0001165  77.5824 282.5296 15.06395312100917","CENTER_NAME":"EARTH","EPHEMERIS_TYPE":"0","RA_OF_ASC_NODE":"322.8016","EPOCH":"2022-07-29T16:41:50.754912","RCS_SIZE":"LARGE","OBJECT_NAME":"STARLINK-1649","ELEMENT_SET_NO":"999","DECAY_DATE":null}];
